      2.10          N: GNSS NAV DATA                        RINEX VERSION / TYPE
fic2rin                                 08/18/2019 00:19:34 PGM / RUN BY / DATE
                                                            END OF HEADER
 4 19  8 17 11 59 44.0 1.054988242686e-04 4.604316927725e-11 0.000000000000e+00
    5.100000000000e+01 8.221875000000e+01 4.444113686602e-09 2.196397717444e+00
    4.148110747337e-06 1.465226174332e-02 9.972602128983e-06 5.153680675507e+03
    5.615840000000e+05-3.390014171600e-07 7.651408105231e-01-1.918524503708e-07
    9.589607260948e-01 1.865937500000e+02 6.756840195115e-01-7.878185300897e-09
    2.082229590363e-10 1.000000000000e+00 2.066000000000e+03 0.000000000000e+00
    2.400000000000e+00 6.300000000000e+01-5.587935447693e-09 5.100000000000e+01
    5.562000000000e+05 4.000000000000e+00
28 19  8 17 11 59 44.0 7.645357400179e-04-7.958078640513e-13 0.000000000000e+00
    2.400000000000e+01-1.806250000000e+01 3.916591713194e-09 2.892029798227e+00
   -1.022592186928e-06 1.902231539134e-02 1.092441380024e-05 5.153708007812e+03
    5.615840000000e+05 3.837049007416e-07-8.563085939472e-02-3.539025783539e-08
    9.814183092233e-01 1.745000000000e+02-1.460988818014e+00-7.376378684352e-09
   -4.643050544549e-10 1.000000000000e+00 2.066000000000e+03 0.000000000000e+00
    2.400000000000e+00 0.000000000000e+00-1.117587089539e-08 2.400000000000e+01
    5.562000000000e+05 4.000000000000e+00
30 19  8 17 11 59 44.0-2.143112942576e-05-7.844391802792e-12 0.000000000000e+00
    3.400000000000e+01 1.250000000000e-01 5.415225565881e-09-7.724195696669e-01
    2.793967723846e-08 4.201375879347e-03 3.833323717117e-06 5.153758726120e+03
    5.615840000000e+05 8.754432201385e-08-1.182954756322e+00-1.862645149231e-08
    9.399101036228e-01 2.903750000000e+02-2.910199097405e+00-8.609287182797e-09
    1.100045821324e-10 1.000000000000e+00 2.066000000000e+03 0.000000000000e+00
    2.400000000000e+00 0.000000000000e+00 3.725290298462e-09 3.400000000000e+01
    5.602500000000e+05 4.000000000000e+00
 3 19  8 17 11 59 44.0-2.312939614058e-06-3.069544618484e-12 0.000000000000e+00
    3.100000000000e+01-9.265625000000e+01 4.286249968087e-09-1.168423637854e+00
   -4.906207323074e-06 2.437343471684e-03 8.828938007355e-06 5.153733411789e+03
    5.615840000000e+05 8.009374141693e-08 2.965848373867e+00-1.490116119385e-08
    9.639316237127e-01 2.124375000000e+02 6.977307742817e-01-7.943188008521e-09
   -3.875161416028e-10 1.000000000000e+00 2.066000000000e+03 0.000000000000e+00
    2.400000000000e+00 0.000000000000e+00 1.862645149231e-09 3.100000000000e+01
    5.603100000000e+05 4.000000000000e+00
 3 19  8 17 13 59 44.0-2.334825694561e-06-3.069544618484e-12 0.000000000000e+00
    3.200000000000e+01-9.087500000000e+01 4.366253300547e-09-1.179868812558e-01
   -4.805624485016e-06 2.438389579765e-03 8.136034011841e-06 5.153735805511e+03
    5.687840000000e+05-3.352761268616e-08 2.965790778782e+00 6.519258022308e-08
    9.639282970370e-01 2.214062500000e+02 6.974364029799e-01-8.045692278235e-09
   -4.064455015151e-10 1.000000000000e+00 2.066000000000e+03 0.000000000000e+00
    2.400000000000e+00 0.000000000000e+00 1.862645149231e-09 3.200000000000e+01
    5.616000000000e+05 4.000000000000e+00
30 19  8 17 13 59 44.0-2.148747444153e-05-7.844391802792e-12 0.000000000000e+00
    3.500000000000e+01 1.062500000000e+00 5.350937173726e-09 2.777222743503e-01
    1.229345798492e-07 4.201778094284e-03 3.883615136147e-06 5.153759485245e+03
    5.687840000000e+05 9.685754776001e-08-1.183016718218e+00 5.215406417847e-08
    9.399108658031e-01 2.931875000000e+02-2.910205961417e+00-8.602858343581e-09
    9.357532635937e-11 1.000000000000e+00 2.066000000000e+03 0.000000000000e+00
    2.400000000000e+00 0.000000000000e+00 3.725290298462e-09 3.500000000000e+01
    5.616000000000e+05 4.000000000000e+00
19 19  8 17 13 59 44.0-2.796910703182e-04 5.002220859751e-12 0.000000000000e+00
    5.900000000000e+01 9.603125000000e+01 4.106956785521e-09-4.570471499398e-01
    5.064532160759e-06 9.532072348520e-03 8.935108780861e-06 5.153645637512e+03
    5.687840000000e+05-1.005828380585e-07 9.706282541057e-01 7.450580596924e-08
    9.821136809998e-01 2.228125000000e+02 1.481551160050e+00-7.994975879979e-09
    3.482287908412e-10 1.000000000000e+00 2.066000000000e+03 0.000000000000e+00
    2.400000000000e+00 0.000000000000e+00-1.536682248116e-08 5.900000000000e+01
    5.616000000000e+05 4.000000000000e+00
28 19  8 17 13 59 44.0 7.645301520824e-04-7.958078640513e-13 0.000000000000e+00
    5.800000000000e+01-8.843750000000e+00 3.880875939775e-09-2.341024576842e+00
   -3.688037395477e-07 1.902411738411e-02 1.025758683681e-05 5.153704574585e+03
    5.687840000000e+05 2.123415470123e-07-8.568476646303e-02 2.104789018631e-07
    9.814160475520e-01 1.845000000000e+02-1.460962649336e+00-7.324233655159e-09
   -2.646538810393e-10 1.000000000000e+00 2.066000000000e+03 0.000000000000e+00
    2.400000000000e+00 0.000000000000e+00-1.117587089539e-08 5.800000000000e+01
    5.616000000000e+05 4.000000000000e+00
 2 19  8 17 14  0  0.0-2.848906442523e-04-8.412825991400e-12 0.000000000000e+00
    6.500000000000e+01 1.781250000000e+01 5.189144720135e-09 1.203753390349e+00
    5.811452865601e-07 1.898080296814e-02 2.438202500343e-06 5.153762653351e+03
    5.688000000000e+05-3.799796104431e-07 1.853208388814e+00-2.756714820862e-07
    9.554290194879e-01 3.356562500000e+02-1.722318810017e+00-8.827153400656e-09
    2.142946405177e-12 1.000000000000e+00 2.066000000000e+03 0.000000000000e+00
    2.400000000000e+00 0.000000000000e+00-2.048909664154e-08 6.500000000000e+01
    5.616000000000e+05 4.000000000000e+00
 1 19  8 17 14  0  0.0-9.949412196875e-05-1.159605744760e-11 0.000000000000e+00
    8.200000000000e+01 8.437500000000e+00 4.654836749778e-09 9.434703429839e-01
    6.239861249924e-07 9.094116976485e-03 2.471730113029e-06 5.153646526337e+03
    5.688000000000e+05 9.313225746155e-09 1.923666764511e+00 1.303851604462e-07
    9.763536517229e-01 3.394062500000e+02 7.542944813357e-01-8.480710398486e-09
   -1.225051028293e-10 1.000000000000e+00 2.066000000000e+03 0.000000000000e+00
    2.400000000000e+00 0.000000000000e+00 5.587935447693e-09 8.200000000000e+01
    5.616000000000e+05 4.000000000000e+00
 9 19  8 17 14  0  0.0-8.698087185621e-06-8.981260180008e-12 0.000000000000e+00
    3.600000000000e+01 2.578125000000e+01 4.456614207299e-09-2.739815850682e+00
    1.370906829834e-06 1.286514918320e-03 1.037679612637e-05 5.153619424820e+03
    5.688000000000e+05-1.862645149231e-08-2.285941847591e+00-8.940696716309e-08
    9.526265643773e-01 1.772187500000e+02 1.703426896602e+00-7.891400137062e-09
    3.400141629547e-10 1.000000000000e+00 2.066000000000e+03 0.000000000000e+00
    2.400000000000e+00 0.000000000000e+00 1.396983861923e-09 3.600000000000e+01
    5.616000000000e+05 4.000000000000e+00
 5 19  8 17 14  0  0.0-6.789341568947e-07-2.273736754432e-13 0.000000000000e+00
    1.010000000000e+02-1.087500000000e+02 4.593405619496e-09-2.413107248037e+00
   -5.610287189484e-06 5.839244229719e-03 8.594244718552e-06 5.153755159378e+03
    5.688000000000e+05 7.078051567078e-08 2.937827469815e+00-2.048909664154e-08
    9.507938191447e-01 2.075625000000e+02 7.606638613431e-01-8.103551831175e-09
   -3.650152043484e-10 1.000000000000e+00 2.066000000000e+03 0.000000000000e+00
    2.400000000000e+00 0.000000000000e+00-1.117587089539e-08 1.010000000000e+02
    5.616000000000e+05 4.000000000000e+00
 7 19  8 17 14  0  0.0-8.706143125892e-05-7.844391802792e-12 0.000000000000e+00
    8.500000000000e+01 7.906250000000e+00 5.050924677001e-09 3.207337175153e-01
    5.122274160385e-07 1.312570739537e-02 4.209578037262e-06 5.153728517532e+03
    5.688000000000e+05-2.980232238770e-08-1.209979557991e+00 2.812594175339e-07
    9.544791321499e-01 2.965000000000e+02-2.437955253936e+00-8.531783954476e-09
    6.250260348431e-11 1.000000000000e+00 2.066000000000e+03 0.000000000000e+00
    2.400000000000e+00 0.000000000000e+00-1.117587089539e-08 8.500000000000e+01
    5.616000000000e+05 4.000000000000e+00
 8 19  8 17 14  0  0.0-3.005377948284e-06-1.477928890381e-12 0.000000000000e+00
    4.900000000000e+01 8.771875000000e+01 4.249105563731e-09-3.010329992647e+00
    4.665926098824e-06 4.375399439596e-03 9.246170520782e-06 5.153543249130e+03
    5.688000000000e+05-8.568167686462e-08 8.558815901037e-01 1.490116119385e-08
    9.703510135746e-01 2.070937500000e+02-2.241254924349e-01-7.801396388045e-09
    2.903692379014e-10 1.000000000000e+00 2.066000000000e+03 0.000000000000e+00
    2.400000000000e+00 0.000000000000e+00 5.122274160385e-09 4.900000000000e+01
    5.616000000000e+05 4.000000000000e+00
 6 19  8 17 14  0  0.0-2.777855843306e-05-1.193711796077e-11 0.000000000000e+00
    1.030000000000e+02 5.281250000000e+00 4.586619622546e-09 1.232744937620e+00
    1.937150955200e-07 1.371665857732e-03 2.039596438408e-06 5.153634529114e+03
    5.688000000000e+05 9.313225746155e-09 1.915385537827e+00-6.891787052155e-08
    9.759819871444e-01 3.472812500000e+02-1.107384668365e+00-8.319632260364e-09
   -5.428797559780e-11 1.000000000000e+00 2.066000000000e+03 0.000000000000e+00
    2.400000000000e+00 0.000000000000e+00 4.190951585770e-09 1.030000000000e+02
    5.616000000000e+05 4.000000000000e+00
24 19  8 17 14  0  0.0-9.103678166866e-07-5.684341886081e-13 0.000000000000e+00
    7.000000000000e+00 1.437500000000e+01 5.448084077427e-09 1.235250629558e+00
    6.724148988724e-07 8.514193817973e-03 4.177913069725e-06 5.153697940826e+03
    5.688000000000e+05-7.264316082001e-08-1.277353373844e+00 6.146728992462e-08
    9.376541010798e-01 2.864375000000e+02 6.032003917289e-01-8.685361780180e-09
    6.214544575012e-11 1.000000000000e+00 2.066000000000e+03 0.000000000000e+00
    2.400000000000e+00 0.000000000000e+00 2.793967723846e-09 7.000000000000e+00
    5.616000000000e+05 4.000000000000e+00
